CCSDS_OMM_VERS = 2.0
CREATION_DATE  = 
ORIGINATOR     = 

OBJECT_NAME    = PROGRESS-MS 32
OBJECT_ID      = 2025-204A
CENTER_NAME    = EARTH
REF_FRAME      = TEME
TIME_SYSTEM    = UTC
MEAN_ELEMENT_THEORY = SGP/SGP4

EPOCH          = 2025-11-03T18:39:36.577152
MEAN_MOTION    = 15.49729876
ECCENTRICITY   = .00049997
INCLINATION    = 51.6338
RA_OF_ASC_NODE = 335.3649
ARG_OF_PERICENTER = 13.8862
MEAN_ANOMALY   = 346.2263

EPHEMERIS_TYPE = 0
CLASSIFICATION_TYPE = U
NORAD_CAT_ID   = 65586
ELEMENT_SET_NO = 999
REV_AT_EPOCH   = 27
BSTAR          = .19171699E-3
MEAN_MOTION_DOT = .104E-3
MEAN_MOTION_DDOT = 0

CCSDS_OMM_VERS = 2.0
CREATION_DATE  = 
ORIGINATOR     = 

OBJECT_NAME    = CYGNUS NG-23
OBJECT_ID      = 2025-208A
CENTER_NAME    = EARTH
REF_FRAME      = TEME
TIME_SYSTEM    = UTC
MEAN_ELEMENT_THEORY = SGP/SGP4

EPOCH          = 2025-11-03T18:39:36.577152
MEAN_MOTION    = 15.49729876
ECCENTRICITY   = .00049997
INCLINATION    = 51.6338
RA_OF_ASC_NODE = 335.3649
ARG_OF_PERICENTER = 13.8862
MEAN_ANOMALY   = 346.2263

EPHEMERIS_TYPE = 0
CLASSIFICATION_TYPE = U
NORAD_CAT_ID   = 65616
ELEMENT_SET_NO = 999
REV_AT_EPOCH   = 22
BSTAR          = .19171699E-3
MEAN_MOTION_DOT = .104E-3
MEAN_MOTION_DDOT = 0

CCSDS_OMM_VERS = 2.0
CREATION_DATE  = 
ORIGINATOR     = 

OBJECT_NAME    = DRAGONFLY
OBJECT_ID      = 1998-067XH
CENTER_NAME    = EARTH
REF_FRAME      = TEME
TIME_SYSTEM    = UTC
MEAN_ELEMENT_THEORY = SGP/SGP4

EPOCH          = 2025-11-03T08:27:23.019264
MEAN_MOTION    = 15.60005687
ECCENTRICITY   = .00036311
INCLINATION    = 51.6315
RA_OF_ASC_NODE = 335.5297
ARG_OF_PERICENTER = 71.0285
MEAN_ANOMALY   = 289.1102

EPHEMERIS_TYPE = 0
CLASSIFICATION_TYPE = U
NORAD_CAT_ID   = 65729
ELEMENT_SET_NO = 999
REV_AT_EPOCH   = 699
BSTAR          = .10812497E-2
MEAN_MOTION_DOT = .89643E-3
MEAN_MOTION_DDOT = 0

CCSDS_OMM_VERS = 2.0
CREATION_DATE  = 
ORIGINATOR     = 

OBJECT_NAME    = 1998-067XJ
OBJECT_ID      = 1998-067XJ
CENTER_NAME    = EARTH
REF_FRAME      = TEME
TIME_SYSTEM    = UTC
MEAN_ELEMENT_THEORY = SGP/SGP4

EPOCH          = 2025-11-03T10:33:46.369728
MEAN_MOTION    = 15.68907895
ECCENTRICITY   = .00110348
INCLINATION    = 51.6281
RA_OF_ASC_NODE = 333.8588
ARG_OF_PERICENTER = 51.7909
MEAN_ANOMALY   = 308.4080

EPHEMERIS_TYPE = 0
CLASSIFICATION_TYPE = U
NORAD_CAT_ID   = 65730
ELEMENT_SET_NO = 999
REV_AT_EPOCH   = 702
BSTAR          = .215154E-2
MEAN_MOTION_DOT = .260766E-2
MEAN_MOTION_DDOT = 0

CCSDS_OMM_VERS = 2.0
CREATION_DATE  = 
ORIGINATOR     = 

OBJECT_NAME    = 1998-067XK
OBJECT_ID      = 1998-067XK
CENTER_NAME    = EARTH
REF_FRAME      = TEME
TIME_SYSTEM    = UTC
MEAN_ELEMENT_THEORY = SGP/SGP4

EPOCH          = 2025-11-03T10:38:21.582240
MEAN_MOTION    = 15.57923955
ECCENTRICITY   = .00050388
INCLINATION    = 51.6320
RA_OF_ASC_NODE = 335.3882
ARG_OF_PERICENTER = 50.1206
MEAN_ANOMALY   = 310.0228

EPHEMERIS_TYPE = 0
CLASSIFICATION_TYPE = U
NORAD_CAT_ID   = 65731
ELEMENT_SET_NO = 999
REV_AT_EPOCH   = 700
BSTAR          = .85720492E-3
MEAN_MOTION_DOT = .65369E-3
MEAN_MOTION_DDOT = 0

CCSDS_OMM_VERS = 2.0
CREATION_DATE  = 
ORIGINATOR     = 

OBJECT_NAME    = RSP-03
OBJECT_ID      = 1998-067XL
CENTER_NAME    = EARTH
REF_FRAME      = TEME
TIME_SYSTEM    = UTC
MEAN_ELEMENT_THEORY = SGP/SGP4

EPOCH          = 2025-11-03T08:47:06.912672
MEAN_MOTION    = 15.58927947
ECCENTRICITY   = .00057849
INCLINATION    = 51.6313
RA_OF_ASC_NODE = 335.6218
ARG_OF_PERICENTER = 50.5301
MEAN_ANOMALY   = 309.6203

EPHEMERIS_TYPE = 0
CLASSIFICATION_TYPE = U
NORAD_CAT_ID   = 65732
ELEMENT_SET_NO = 999
REV_AT_EPOCH   = 700
BSTAR          = .97820388E-3
MEAN_MOTION_DOT = .77697E-3
MEAN_MOTION_DDOT = 0

CCSDS_OMM_VERS = 2.0
CREATION_DATE  = 
ORIGINATOR     = 

OBJECT_NAME    = GHS-01
OBJECT_ID      = 1998-067XM
CENTER_NAME    = EARTH
REF_FRAME      = TEME
TIME_SYSTEM    = UTC
MEAN_ELEMENT_THEORY = SGP/SGP4

EPOCH          = 2025-11-03T08:14:17.905920
MEAN_MOTION    = 15.60739155
ECCENTRICITY   = .00040954
INCLINATION    = 51.6327
RA_OF_ASC_NODE = 335.4708
ARG_OF_PERICENTER = 67.6051
MEAN_ANOMALY   = 292.5376

EPHEMERIS_TYPE = 0
CLASSIFICATION_TYPE = U
NORAD_CAT_ID   = 65733
ELEMENT_SET_NO = 999
REV_AT_EPOCH   = 700
BSTAR          = .117821E-2
MEAN_MOTION_DOT = .100668E-2
MEAN_MOTION_DDOT = 0

CCSDS_OMM_VERS = 2.0
CREATION_DATE  = 
ORIGINATOR     = 

OBJECT_NAME    = YOTSUBA-KULOVER
OBJECT_ID      = 1998-067XN
CENTER_NAME    = EARTH
REF_FRAME      = TEME
TIME_SYSTEM    = UTC
MEAN_ELEMENT_THEORY = SGP/SGP4

EPOCH          = 2025-11-03T19:16:08.836320
MEAN_MOTION    = 15.53493482
ECCENTRICITY   = .00026455
INCLINATION    = 51.6325
RA_OF_ASC_NODE = 334.7856
ARG_OF_PERICENTER = 1.5585
MEAN_ANOMALY   = 358.5413

EPHEMERIS_TYPE = 0
CLASSIFICATION_TYPE = U
NORAD_CAT_ID   = 65941
ELEMENT_SET_NO = 999
REV_AT_EPOCH   = 379
BSTAR          = .85063962E-3
MEAN_MOTION_DOT = .54932E-3
MEAN_MOTION_DDOT = 0

CCSDS_OMM_VERS = 2.0
CREATION_DATE  = 
ORIGINATOR     = 

OBJECT_NAME    = BOTAN
OBJECT_ID      = 1998-067XP
CENTER_NAME    = EARTH
REF_FRAME      = TEME
TIME_SYSTEM    = UTC
MEAN_ELEMENT_THEORY = SGP/SGP4

EPOCH          = 2025-11-03T19:05:41.632800
MEAN_MOTION    = 15.54427286
ECCENTRICITY   = .0004805
INCLINATION    = 51.6325
RA_OF_ASC_NODE = 334.7378
ARG_OF_PERICENTER = 16.4520
MEAN_ANOMALY   = 343.6625

EPHEMERIS_TYPE = 0
CLASSIFICATION_TYPE = U
NORAD_CAT_ID   = 65942
ELEMENT_SET_NO = 999
REV_AT_EPOCH   = 379
BSTAR          = .11037768E-2
MEAN_MOTION_DOT = .74105E-3
MEAN_MOTION_DDOT = 0

CCSDS_OMM_VERS = 2.0
CREATION_DATE  = 
ORIGINATOR     = 

OBJECT_NAME    = E-KAGAKU-1
OBJECT_ID      = 1998-067XQ
CENTER_NAME    = EARTH
REF_FRAME      = TEME
TIME_SYSTEM    = UTC
MEAN_ELEMENT_THEORY = SGP/SGP4

EPOCH          = 2025-11-03T08:27:04.684320
MEAN_MOTION    = 15.53447140
ECCENTRICITY   = .00044757
INCLINATION    = 51.6338
RA_OF_ASC_NODE = 337.0259
ARG_OF_PERICENTER = 1.7618
MEAN_ANOMALY   = 358.3388

EPHEMERIS_TYPE = 0
CLASSIFICATION_TYPE = U
NORAD_CAT_ID   = 65943
ELEMENT_SET_NO = 999
REV_AT_EPOCH   = 372
BSTAR          = .76994813E-3
MEAN_MOTION_DOT = .49569E-3
MEAN_MOTION_DDOT = 0

CCSDS_OMM_VERS = 2.0
CREATION_DATE  = 
ORIGINATOR     = 

OBJECT_NAME    = HRC MONOBLOCK CAMERA
OBJECT_ID      = 1998-067XR
CENTER_NAME    = EARTH
REF_FRAME      = TEME
TIME_SYSTEM    = UTC
MEAN_ELEMENT_THEORY = SGP/SGP4

EPOCH          = 2025-11-03T15:22:59.630880
MEAN_MOTION    = 15.50757974
ECCENTRICITY   = .00045137
INCLINATION    = 51.6321
RA_OF_ASC_NODE = 335.9532
ARG_OF_PERICENTER = 23.2101
MEAN_ANOMALY   = 336.9091

EPHEMERIS_TYPE = 0
CLASSIFICATION_TYPE = U
NORAD_CAT_ID   = 66052
ELEMENT_SET_NO = 999
REV_AT_EPOCH   = 276
BSTAR          = .53300142E-3
MEAN_MOTION_DOT = .30918E-3
MEAN_MOTION_DDOT = 0

CCSDS_OMM_VERS = 2.0
CREATION_DATE  = 
ORIGINATOR     = 

OBJECT_NAME    = HTV-X1
OBJECT_ID      = 2025-241A
CENTER_NAME    = EARTH
REF_FRAME      = TEME
TIME_SYSTEM    = UTC
MEAN_ELEMENT_THEORY = SGP/SGP4

EPOCH          = 2025-11-03T18:39:36.577152
MEAN_MOTION    = 15.49729876
ECCENTRICITY   = .00049997
INCLINATION    = 51.6338
RA_OF_ASC_NODE = 335.3649
ARG_OF_PERICENTER = 13.8862
MEAN_ANOMALY   = 346.2263

EPHEMERIS_TYPE = 0
CLASSIFICATION_TYPE = U
NORAD_CAT_ID   = 66174
ELEMENT_SET_NO = 999
REV_AT_EPOCH   = 133
BSTAR          = .19171699E-3
MEAN_MOTION_DOT = .104E-3
MEAN_MOTION_DDOT = 0

